start=new Date('2022-02-10T00:00:00.000Z').valueOf();
sats=[{"REF_FRAME":"TEME","OBJECT_ID":"2021-036F","REV_AT_EPOCH":"4394","INCLINATION":"53.0553","EPOCH":"2022-02-09T14:54:51.893280","DECAY_DATE":null,"MEAN_MOTION":"15.06389209","APOAPSIS":"548.480","SEMIMAJOR_AXIS":"6925.382","NORAD_CAT_ID":"48281","RA_OF_ASC_NODE":"281.3063","LAUNCH_DATE":"2021-04-29","FILE":"3295989","PERIAPSIS":"546.013","MEAN_MOTION_DOT":"0.00002674","EPHEMERIS_TYPE":"0","PERIOD":"95.593","MEAN_ELEMENT_THEORY":"SGP4","MEAN_MOTION_DDOT":"0.0000000000000","TLE_LINE2":"2 48281  53.0553 281.3063 0001781  64.9864 295.1310 15.06389209 43947","ELEMENT_SET_NO":"999","RCS_SIZE":"LARGE","TIME_SYSTEM":"UTC","TLE_LINE1":"1 48281U 21036F   22040.62143395  .00002674  00000-0  19838-3 0  9997","SITE":"AFETR","MEAN_ANOMALY":"295.1310","COUNTRY_CODE":"US","ARG_OF_PERICENTER":"64.9864","CENTER_NAME":"EARTH","BSTAR":"0.00019838000000","OBJECT_TYPE":"PAYLOAD","CLASSIFICATION_TYPE":"U","OBJECT_NAME":"STARLINK-2520","ECCENTRICITY":"0.00017810","GP_ID":"195640358"},{"REV_AT_EPOCH":"4448","INCLINATION":"53.0543","EPOCH":"2022-02-09T18:39:44.741088","OBJECT_ID":"2021-036G","REF_FRAME":"TEME","DECAY_DATE":null,"SEMIMAJOR_AXIS":"6925.335","NORAD_CAT_ID":"48282","RA_OF_ASC_NODE":"285.6129","APOAPSIS":"548.309","MEAN_MOTION":"15.06404320","EPHEMERIS_TYPE":"0","PERIOD":"95.592","MEAN_ELEMENT_THEORY":"SGP4","MEAN_MOTION_DDOT":"0.0000000000000","TLE_LINE2":"2 48282  53.0543 285.6129 0001601  65.8055 294.3102 15.06404320 44482","LAUNCH_DATE":"2021-04-29","FILE":"3296066","PERIAPSIS":"546.092","MEAN_MOTION_DOT":"0.00001297","RCS_SIZE":"LARGE","TIME_SYSTEM":"UTC","TLE_LINE1":"1 48282U 21036G   22040.77760117  .00001297  00000-0  10597-3 0  9994","SITE":"AFETR","MEAN_ANOMALY":"294.3102","ELEMENT_SET_NO":"999","CENTER_NAME":"EARTH","BSTAR":"0.00010597000000","OBJECT_TYPE":"PAYLOAD","COUNTRY_CODE":"US","ARG_OF_PERICENTER":"65.8055","OBJECT_NAME":"STARLINK-2558","CLASSIFICATION_TYPE":"U","ECCENTRICITY":"0.00016010","GP_ID":"195644433"},{"MEAN_ANOMALY":"300.3376","TLE_LINE1":"1 48283U 21036H   22039.97775923  .00002769  00000-0  20480-3 0  9993","SITE":"AFETR","TIME_SYSTEM":"UTC","RCS_SIZE":"LARGE","ELEMENT_SET_NO":"999","OBJECT_TYPE":"PAYLOAD","BSTAR":"0.00020480000000","CENTER_NAME":"EARTH","ARG_OF_PERICENTER":"59.7794","COUNTRY_CODE":"US","ECCENTRICITY":"0.00018320","CLASSIFICATION_TYPE":"U","OBJECT_NAME":"STARLINK-2516","GP_ID":"195639357","EPOCH":"2022-02-08T23:27:58.397472","INCLINATION":"53.0549","REV_AT_EPOCH":"4378","REF_FRAME":"TEME","OBJECT_ID":"2021-036H","DECAY_DATE":null,"SEMIMAJOR_AXIS":"6925.389","NORAD_CAT_ID":"48283","RA_OF_ASC_NODE":"289.2040","APOAPSIS":"548.523","MEAN_MOTION":"15.06386730","TLE_LINE2":"2 48283  53.0549 289.2040 0001832  59.7794 300.3376 15.06386730 43786","MEAN_MOTION_DDOT":"0.0000000000000","PERIOD":"95.593","MEAN_ELEMENT_THEORY":"SGP4","EPHEMERIS_TYPE":"0","MEAN_MOTION_DOT":"0.00002769","PERIAPSIS":"545.985","FILE":"3295989","LAUNCH_DATE":"2021-04-29"},{"OBJECT_ID":"2021-036J","REF_FRAME":"TEME","EPOCH":"2022-02-09T08:55:55.364448","REV_AT_EPOCH":"4383","INCLINATION":"53.0548","DECAY_DATE":null,"MEAN_MOTION":"15.06388837","APOAPSIS":"548.415","SEMIMAJOR_AXIS":"6925.383","NORAD_CAT_ID":"48284","RA_OF_ASC_NODE":"287.4152","PERIAPSIS":"546.080","MEAN_MOTION_DOT":"0.00003915","LAUNCH_DATE":"2021-04-29","FILE":"3295989","MEAN_MOTION_DDOT":"0.0000000000000","TLE_LINE2":"2 48284  53.0548 287.4152 0001686  67.2783 292.8384 15.06388837 43839","EPHEMERIS_TYPE":"0","MEAN_ELEMENT_THEORY":"SGP4","PERIOD":"95.593","ELEMENT_SET_NO":"999","TLE_LINE1":"1 48284U 21036J   22040.37216857  .00003915  00000-0  28166-3 0  9999","SITE":"AFETR","MEAN_ANOMALY":"292.8384","RCS_SIZE":"LARGE","TIME_SYSTEM":"UTC","ARG_OF_PERICENTER":"67.2783","COUNTRY_CODE":"US","BSTAR":"0.00028166000000","OBJECT_TYPE":"PAYLOAD","CENTER_NAME":"EARTH","ECCENTRICITY":"0.00016860","OBJECT_NAME":"STARLINK-2564","CLASSIFICATION_TYPE":"U","GP_ID":"195639607"},{"ECCENTRICITY":"0.00015820","OBJECT_NAME":"STARLINK-2548","CLASSIFICATION_TYPE":"U","GP_ID":"195645049","ELEMENT_SET_NO":"999","TLE_LINE1":"1 48285U 21036K   22040.70019787  .00000874  00000-0  77601-4 0  9990","SITE":"AFETR","MEAN_ANOMALY":"291.2390","RCS_SIZE":"LARGE","TIME_SYSTEM":"UTC","ARG_OF_PERICENTER":"68.8768","COUNTRY_CODE":"US","BSTAR":"0.00007760100000","OBJECT_TYPE":"PAYLOAD","CENTER_NAME":"EARTH","MEAN_MOTION":"15.06396026","APOAPSIS":"548.321","NORAD_CAT_ID":"48285","SEMIMAJOR_AXIS":"6925.361","RA_OF_ASC_NODE":"285.9486","PERIAPSIS":"546.130","MEAN_MOTION_DOT":"0.00000874","LAUNCH_DATE":"2021-04-29","FILE":"3296085","MEAN_MOTION_DDOT":"0.0000000000000","TLE_LINE2":"2 48285  53.0553 285.9486 0001582  68.8768 291.2390 15.06396026 44463","EPHEMERIS_TYPE":"0","MEAN_ELEMENT_THEORY":"SGP4","PERIOD":"95.592","OBJECT_ID":"2021-036K","REF_FRAME":"TEME","EPOCH":"2022-02-09T16:48:17.095968","REV_AT_EPOCH":"4446","INCLINATION":"53.0553","DECAY_DATE":null},{"ECCENTRICITY":"0.00019240","OBJECT_NAME":"STARLINK-2547","CLASSIFICATION_TYPE":"U","GP_ID":"195640609","ELEMENT_SET_NO":"999","SITE":"AFETR","TLE_LINE1":"1 48286U 21036L   22040.16577034  .00010384  00000-0  71509-3 0  9992","MEAN_ANOMALY":"294.9020","RCS_SIZE":"LARGE","TIME_SYSTEM":"UTC","ARG_OF_PERICENTER":"65.2169","COUNTRY_CODE":"US","BSTAR":"0.00071509000000","OBJECT_TYPE":"PAYLOAD","CENTER_NAME":"EARTH","MEAN_MOTION":"15.06394671","APOAPSIS":"548.562","SEMIMAJOR_AXIS":"6925.365","NORAD_CAT_ID":"48286","RA_OF_ASC_NODE":"288.3593","PERIAPSIS":"545.897","MEAN_MOTION_DOT":"0.00010384","LAUNCH_DATE":"2021-04-29","FILE":"3295989","MEAN_MOTION_DDOT":"0.0000000000000","TLE_LINE2":"2 48286  53.0552 288.3593 0001924  65.2169 294.9020 15.06394671 43806","EPHEMERIS_TYPE":"0","MEAN_ELEMENT_THEORY":"SGP4","PERIOD":"95.592","REF_FRAME":"TEME","OBJECT_ID":"2021-036L","EPOCH":"2022-02-09T03:58:42.557376","REV_AT_EPOCH":"4380","INCLINATION":"53.0552","DECAY_DATE":null},{"ELEMENT_SET_NO":"999","TIME_SYSTEM":"UTC","RCS_SIZE":"LARGE","MEAN_ANOMALY":"296.6610","SITE":"AFETR","TLE_LINE1":"1 48287U 21036M   22040.69284323  .00003283  00000-0  23923-3 0  9994","COUNTRY_CODE":"US","ARG_OF_PERICENTER":"63.4557","CENTER_NAME":"EARTH","OBJECT_TYPE":"PAYLOAD","BSTAR":"0.00023923000000","OBJECT_NAME":"STARLINK-2566","CLASSIFICATION_TYPE":"U","ECCENTRICITY":"0.00017400","GP_ID":"195645547","OBJECT_ID":"2021-036M","REF_FRAME":"TEME","INCLINATION":"53.0552","REV_AT_EPOCH":"4446","EPOCH":"2022-02-09T16:37:41.655072","DECAY_DATE":null,"APOAPSIS":"548.432","MEAN_MOTION":"15.06395534","SEMIMAJOR_AXIS":"6925.362","NORAD_CAT_ID":"48287","RA_OF_ASC_NODE":"285.9781","FILE":"3296101","LAUNCH_DATE":"2021-04-29","MEAN_MOTION_DOT":"0.00003283","PERIAPSIS":"546.022","MEAN_ELEMENT_THEORY":"SGP4","PERIOD":"95.592","EPHEMERIS_TYPE":"0","TLE_LINE2":"2 48287  53.0552 285.9781 0001740  63.4557 296.6610 15.06395534 44462","MEAN_MOTION_DDOT":"0.0000000000000"},{"DECAY_DATE":null,"EPOCH":"2022-02-09T03:48:04.590144","REV_AT_EPOCH":"4380","INCLINATION":"53.0562","OBJECT_ID":"2021-036N","REF_FRAME":"TEME","MEAN_MOTION_DDOT":"0.0000000000000","TLE_LINE2":"2 48288  53.0562 288.3917 0001760  61.8753 298.2413 15.06385666 43805","EPHEMERIS_TYPE":"0","MEAN_ELEMENT_THEORY":"SGP4","PERIOD":"95.593","PERIAPSIS":"546.039","MEAN_MOTION_DOT":"0.00003155","LAUNCH_DATE":"2021-04-29","FILE":"3295989","SEMIMAJOR_AXIS":"6925.392","RA_OF_ASC_NODE":"288.3917","NORAD_CAT_ID":"48288","APOAPSIS":"548.476","MEAN_MOTION":"15.06385666","BSTAR":"0.00023071000000","OBJECT_TYPE":"PAYLOAD","CENTER_NAME":"EARTH","ARG_OF_PERICENTER":"61.8753","COUNTRY_CODE":"US","SITE":"AFETR","TLE_LINE1":"1 48288U 21036N   22040.15838646  .00003155  00000-0  23071-3 0  9991","MEAN_ANOMALY":"298.2413","RCS_SIZE":"LARGE","TIME_SYSTEM":"UTC","ELEMENT_SET_NO":"999","GP_ID":"195640108","ECCENTRICITY":"0.00017600","OBJECT_NAME":"STARLINK-2562","CLASSIFICATION_TYPE":"U"},{"DECAY_DATE":null,"REV_AT_EPOCH":"4384","INCLINATION":"53.0537","EPOCH":"2022-02-09T10:04:55.387200","REF_FRAME":"TEME","OBJECT_ID":"2021-036P","EPHEMERIS_TYPE":"0","PERIOD":"95.592","MEAN_ELEMENT_THEORY":"SGP4","MEAN_MOTION_DDOT":"0.0000000000000","TLE_LINE2":"2 48289  53.0537 287.2007 0001778  67.3920 292.7257 15.06409870 43845","LAUNCH_DATE":"2021-04-29","FILE":"3295989","PERIAPSIS":"545.952","MEAN_MOTION_DOT":"0.00009314","NORAD_CAT_ID":"48289","SEMIMAJOR_AXIS":"6925.318","RA_OF_ASC_NODE":"287.2007","MEAN_MOTION":"15.06409870","APOAPSIS":"548.415","CENTER_NAME":"EARTH","BSTAR":"0.00064316000000","OBJECT_TYPE":"PAYLOAD","COUNTRY_CODE":"US","ARG_OF_PERICENTER":"67.3920","RCS_SIZE":"LARGE","TIME_SYSTEM":"UTC","SITE":"AFETR","TLE_LINE1":"1 48289U 21036P   22040.42008550  .00009314  00000-0  64316-3 0  9995","MEAN_ANOMALY":"292.7257","ELEMENT_SET_NO":"999","GP_ID":"195640359","CLASSIFICATION_TYPE":"U","OBJECT_NAME":"STARLINK-2545","ECCENTRICITY":"0.00017780"},{"OBJECT_NAME":"STARLINK-2540","CLASSIFICATION_TYPE":"U","ECCENTRICITY":"0.00017230","GP_ID":"195645144","TIME_SYSTEM":"UTC","RCS_SIZE":"LARGE","MEAN_ANOMALY":"304.7562","TLE_LINE1":"1 48290U 21036Q   22040.81447502  .00006616  00000-0  46257-3 0  9990","SITE":"AFETR","ELEMENT_SET_NO":"999","CENTER_NAME":"EARTH","OBJECT_TYPE":"PAYLOAD","BSTAR":"0.00046257000000","COUNTRY_CODE":"US","ARG_OF_PERICENTER":"55.3589","NORAD_CAT_ID":"48290","SEMIMAJOR_AXIS":"6925.328","RA_OF_ASC_NODE":"285.4532","MEAN_MOTION":"15.06406686","APOAPSIS":"548.386","MEAN_ELEMENT_THEORY":"SGP4","PERIOD":"95.592","EPHEMERIS_TYPE":"0","TLE_LINE2":"2 48290  53.0550 285.4532 0001723  55.3589 304.7562 15.06406686 44489","MEAN_MOTION_DDOT":"0.0000000000000","FILE":"3296125","LAUNCH_DATE":"2021-04-29","MEAN_MOTION_DOT":"0.00006616","PERIAPSIS":"546.000","INCLINATION":"53.0550","REV_AT_EPOCH":"4448","EPOCH":"2022-02-09T19:32:50.641728","REF_FRAME":"TEME","OBJECT_ID":"2021-036Q","DECAY_DATE":null}];
